[{"OBJECT_NAME":"STARLINK-6215","OBJECT_ID":"2023-099AR","EPOCH":"2026-03-09T22:00:01.999584","MEAN_MOTION":15.14592459,"ECCENTRICITY":0.00010726,"INCLINATION":43.0008,"RA_OF_ASC_NODE":221.1612,"ARG_OF_PERICENTER":297.0481,"MEAN_ANOMALY":176.8497,"EPHEMERIS_TYPE":0,"CLASSIFICATION_TYPE":"U","NORAD_CAT_ID":57367,"ELEMENT_SET_NO":999,"REV_AT_EPOCH":572,"BSTAR":0.062021398,"MEAN_MOTION_DOT":0.01260474,"MEAN_MOTION_DDOT":0},{"OBJECT_NAME":"DROID.002","OBJECT_ID":"2025-052P","EPOCH":"2026-03-09T23:25:00.743520","MEAN_MOTION":15.22033904,"ECCENTRICITY":0.00055943,"INCLINATION":97.4049,"RA_OF_ASC_NODE":323.345,"ARG_OF_PERICENTER":112.4531,"MEAN_ANOMALY":247.7298,"EPHEMERIS_TYPE":0,"CLASSIFICATION_TYPE":"U","NORAD_CAT_ID":63223,"ELEMENT_SET_NO":999,"REV_AT_EPOCH":5477,"BSTAR":0.00036874909,"MEAN_MOTION_DOT":8.365e-5,"MEAN_MOTION_DDOT":0}]
